{"type": "FeatureCollection", "features": [ {"type": "Feature", "properties": {"norad_id": 66987, "name": "STARLINK-36147", "group": "last-30-days", "lat": 32.34455410936845, "lon": 167.70930968521267, "alt_km": 317.71935305291663, "timestamp": "2025-12-19T14:48:34.966969+00:00", "meta": {"OBJECT_NAME": "STARLINK-36147", "OBJECT_ID": "2025-288AE", "EPOCH": "2025-12-19T00:00:02.000160", "MEAN_MOTION": 15.85034425, "ECCENTRICITY": 0.00014388, "INCLINATION": 43.0018, "RA_OF_ASC_NODE": 128.6949, "ARG_OF_PERICENTER": 285.1509, "MEAN_ANOMALY": 203.6547, "EPHEMERIS_TYPE": 0, "CLASSIFICATION_TYPE": "U", "NORAD_CAT_ID": 66987, "ELEMENT_SET_NO": 999, "REV_AT_EPOCH": 283, "BSTAR": -0.0073612538, "MEAN_MOTION_DOT": -0.01571375, "MEAN_MOTION_DDOT": 0}, "tle": {"line1": "1 66987U 25288AE  25353.00002315 -.01571375  00000+0 -73613-2 0  9992", "line2": "2 66987  43.0018 128.6949 0001438 285.1509 203.6547 15.85034425  2836"}}, "geometry": {"type": "Point", "coordinates": [167.70930968521267, 32.34455410936845]}}, {"type": "Feature", "properties": {"norad_id": 66988, "name": "YAOGAN-47", "group": "last-30-days", "lat": -61.177952731366496, "lon": -135.15207449399702, "alt_km": 503.895304169474, "timestamp": "2025-12-19T14:48:34.966985+00:00", "meta": {"OBJECT_NAME": "YAOGAN-47", "OBJECT_ID": "2025-289A", "EPOCH": "2025-12-15T02:32:19.481856", "MEAN_MOTION": 15.23184629, "ECCENTRICITY": 7.87e-05, "INCLINATION": 97.5271, "RA_OF_ASC_NODE": 54.2297, "ARG_OF_PERICENTER": 67.3408, "MEAN_ANOMALY": 292.7912, "EPHEMERIS_TYPE": 0, "CLASSIFICATION_TYPE": "U", "NORAD_CAT_ID": 66988, "ELEMENT_SET_NO": 999, "REV_AT_EPOCH": 90, "BSTAR": 0.00011849353, "MEAN_MOTION_DOT": 2.729e-05, "MEAN_MOTION_DDOT": 0}, "tle": {"line1": "1 66988U 25289A   25349.10578104  .00002729  00000+0  11849-3 0  9997", "line2": "2 66988  97.5271  54.2297 0000787  67.3408 292.7912 15.23184629   901"}}, "geometry": {"type": "Point", "coordinates": [-135.15207449399702, -61.177952731366496]}}, {"type": "Feature", "properties": {"norad_id": 66989, "name": "CZ-4B R/B", "group": "last-30-days", "lat": 79.44083398451816, "lon": 14.290557756624287, "alt_km": 379.7416201064498, "timestamp": "2025-12-19T14:48:34.966996+00:00", "meta": {"OBJECT_NAME": "CZ-4B R/B", "OBJECT_ID": "2025-289B", "EPOCH": "2025-12-19T06:48:32.721984", "MEAN_MOTION": 15.68790478, "ECCENTRICITY": 0.0143976, "INCLINATION": 97.5257, "RA_OF_ASC_NODE": 59.1045, "ARG_OF_PERICENTER": 338.1503, "MEAN_ANOMALY": 21.3655, "EPHEMERIS_TYPE": 0, "CLASSIFICATION_TYPE": "U", "NORAD_CAT_ID": 66989, "ELEMENT_SET_NO": 999, "REV_AT_EPOCH": 159, "BSTAR": 0.00049495952, "MEAN_MOTION_DOT": 0.0010247, "MEAN_MOTION_DDOT": 5.256527e-06}, "tle": {"line1": "1 66989U 25289B   25353.28371206  .00102470  52565-5  49496-3 0  9998", "line2": "2 66989  97.5257  59.1045 0143976 338.1503  21.3655 15.68790478  1594"}}, "geometry": {"type": "Point", "coordinates": [14.290557756624287, 79.44083398451816]}}, {"type": "Feature", "properties": {"norad_id": 66990, "name": "TJS-22", "group": "last-30-days", "lat": 1.9836040229892165, "lon": 17.09278346994632, "alt_km": 35791.35321110763, "timestamp": "2025-12-19T14:48:34.967008+00:00", "meta": {"OBJECT_NAME": "TJS-22", "OBJECT_ID": "2025-290A", "EPOCH": "2025-12-18T08:47:47.925024", "MEAN_MOTION": 1.00270336, "ECCENTRICITY": 0.00034462, "INCLINATION": 1.9746, "RA_OF_ASC_NODE": 285.0171, "ARG_OF_PERICENTER": 341.282, "MEAN_ANOMALY": 19.3488, "EPHEMERIS_TYPE": 0, "CLASSIFICATION_TYPE": "U", "NORAD_CAT_ID": 66990, "ELEMENT_SET_NO": 999, "REV_AT_EPOCH": 21, "BSTAR": 0, "MEAN_MOTION_DOT": 2.1e-07, "MEAN_MOTION_DDOT": 0}, "tle": {"line1": "1 66990U 25290A   25352.36652691  .00000021  00000+0  00000+0 0  9994", "line2": "2 66990   1.9746 285.0171 0003446 341.2820  19.3488  1.00270336   218"}}, "geometry": {"type": "Point", "coordinates": [17.09278346994632, 1.9836040229892165]}}, {"type": "Feature", "properties": {"norad_id": 66991, "name": "CZ-3B R/B", "group": "last-30-days", "lat": 13.729017667946287, "lon": -34.31937177395803, "alt_km": 26469.18427832895, "timestamp": "2025-12-19T14:48:34.967020+00:00", "meta": {"OBJECT_NAME": "CZ-3B R/B", "OBJECT_ID": "2025-290B", "EPOCH": "2025-12-15T17:23:33.043200", "MEAN_MOTION": 2.38388611, "ECCENTRICITY": 0.7240884, "INCLINATION": 28.4636, "RA_OF_ASC_NODE": 300.4666, "ARG_OF_PERICENTER": 182.7002, "MEAN_ANOMALY": 168.625, "EPHEMERIS_TYPE": 0, "CLASSIFICATION_TYPE": "U", "NORAD_CAT_ID": 66991, "ELEMENT_SET_NO": 999, "REV_AT_EPOCH": 16, "BSTAR": 0.00075879, "MEAN_MOTION_DOT": 0.00057911, "MEAN_MOTION_DDOT": -2.0514e-07}, "tle": {"line1": "1 66991U 25290B   25349.72468800  .00057911 -20514-6  75879-3 0  9998", "line2": "2 66991  28.4636 300.4666 7240884 182.7002 168.6250  2.38388611   165"}}, "geometry": {"type": "Point", "coordinates": [-34.31937177395803, 13.729017667946287]}}, {"type": "Feature", "properties": {"norad_id": 66993, "name": "2025-292A", "group": "last-30-days", "lat": 37.17770156136526, "lon": -108.04497720247784, "alt_km": 552.7198293264983, "timestamp": "2025-12-19T14:48:34.967031+00:00", "meta": {"OBJECT_NAME": "2025-292A", "OBJECT_ID": "2025-292A", "EPOCH": "2025-12-19T06:11:49.058016", "MEAN_MOTION": 15.04540227, "ECCENTRICITY": 0.00138954, "INCLINATION": 97.6528, "RA_OF_ASC_NODE": 65.7466, "ARG_OF_PERICENTER": 248.2172, "MEAN_ANOMALY": 111.7576, "EPHEMERIS_TYPE": 0, "CLASSIFICATION_TYPE": "U", "NORAD_CAT_ID": 66993, "ELEMENT_SET_NO": 999, "REV_AT_EPOCH": 137, "BSTAR": 0.00020705591, "MEAN_MOTION_DOT": 2.845e-05, "MEAN_MOTION_DDOT": 0}, "tle": {"line1": "1 66993U 25292A   25353.25820669  .00002845  00000+0  20706-3 0  9995", "line2": "2 66993  97.6528  65.7466 0013895 248.2172 111.7576 15.04540227  1377"}}, "geometry": {"type": "Point", "coordinates": [-108.04497720247784, 37.17770156136526]}}, {"type": "Feature", "properties": {"norad_id": 66994, "name": "2025-292B", "group": "last-30-days", "lat": 35.684368569066336, "lon": -108.35455366600107, "alt_km": 552.5986042007589, "timestamp": "2025-12-19T14:48:34.967041+00:00", "meta": {"OBJECT_NAME": "2025-292B", "OBJECT_ID": "2025-292B", "EPOCH": "2025-12-19T06:11:25.834560", "MEAN_MOTION": 15.04581174, "ECCENTRICITY": 0.00136595, "INCLINATION": 97.6537, "RA_OF_ASC_NODE": 65.7478, "ARG_OF_PERICENTER": 248.5509, "MEAN_ANOMALY": 111.4261, "EPHEMERIS_TYPE": 0, "CLASSIFICATION_TYPE": "U", "NORAD_CAT_ID": 66994, "ELEMENT_SET_NO": 999, "REV_AT_EPOCH": 137, "BSTAR": 0.00024454567, "MEAN_MOTION_DOT": 3.376e-05, "MEAN_MOTION_DDOT": 0}, "tle": {"line1": "1 66994U 25292B   25353.25793790  .00003376  00000+0  24455-3 0  9995", "line2": "2 66994  97.6537  65.7478 0013659 248.5509 111.4261 15.04581174  1370"}}, "geometry": {"type": "Point", "coordinates": [-108.35455366600107, 35.684368569066336]}}, {"type": "Feature", "properties": {"norad_id": 66995, "name": "2025-292C", "group": "last-30-days", "lat": 35.28740248529453, "lon": -108.43685104491051, "alt_km": 552.6276677620617, "timestamp": "2025-12-19T14:48:34.967053+00:00", "meta": {"OBJECT_NAME": "2025-292C", "OBJECT_ID": "2025-292C", "EPOCH": "2025-12-19T06:11:19.847040", "MEAN_MOTION": 15.04607318, "ECCENTRICITY": 0.00139633, "INCLINATION": 97.6528, "RA_OF_ASC_NODE": 65.747, "ARG_OF_PERICENTER": 248.9447, "MEAN_ANOMALY": 111.0286, "EPHEMERIS_TYPE": 0, "CLASSIFICATION_TYPE": "U", "NORAD_CAT_ID": 66995, "ELEMENT_SET_NO": 999, "REV_AT_EPOCH": 137, "BSTAR": 0.00027218059, "MEAN_MOTION_DOT": 3.767e-05, "MEAN_MOTION_DDOT": 0}, "tle": {"line1": "1 66995U 25292C   25353.25786860  .00003767  00000+0  27218-3 0  9990", "line2": "2 66995  97.6528  65.7470 0013963 248.9447 111.0286 15.04607318  1378"}}, "geometry": {"type": "Point", "coordinates": [-108.43685104491051, 35.28740248529453]}}, {"type": "Feature", "properties": {"norad_id": 66996, "name": "2025-292D", "group": "last-30-days", "lat": 33.75638427642204, "lon": -108.74197954925191, "alt_km": 552.8246034201838, "timestamp": "2025-12-19T14:48:34.967063+00:00", "meta": {"OBJECT_NAME": "2025-292D", "OBJECT_ID": "2025-292D", "EPOCH": "2025-12-19T06:10:55.998912", "MEAN_MOTION": 15.04637815, "ECCENTRICITY": 0.0013126, "INCLINATION": 97.6521, "RA_OF_ASC_NODE": 65.7467, "ARG_OF_PERICENTER": 251.6473, "MEAN_ANOMALY": 108.3325, "EPHEMERIS_TYPE": 0, "CLASSIFICATION_TYPE": "U", "NORAD_CAT_ID": 66996, "ELEMENT_SET_NO": 999, "REV_AT_EPOCH": 137, "BSTAR": 0.0001782249, "MEAN_MOTION_DOT": 2.446e-05, "MEAN_MOTION_DDOT": 0}, "tle": {"line1": "1 66996U 25292D   25353.25759258  .00002446  00000+0  17822-3 0  9995", "line2": "2 66996  97.6521  65.7467 0013126 251.6473 108.3325 15.04637815  1377"}}, "geometry": {"type": "Point", "coordinates": [-108.74197954925191, 33.75638427642204]}}, {"type": "Feature", "properties": {"norad_id": 66997, "name": "2025-292E", "group": "last-30-days", "lat": 31.049149510368753, "lon": -109.2497773803262, "alt_km": 552.7601254292786, "timestamp": "2025-12-19T14:48:34.967073+00:00", "meta": {"OBJECT_NAME": "2025-292E", "OBJECT_ID": "2025-292E", "EPOCH": "2025-12-19T06:10:13.915200", "MEAN_MOTION": 15.04723396, "ECCENTRICITY": 0.00134879, "INCLINATION": 97.6543, "RA_OF_ASC_NODE": 65.7496, "ARG_OF_PERICENTER": 252.5124, "MEAN_ANOMALY": 107.4629, "EPHEMERIS_TYPE": 0, "CLASSIFICATION_TYPE": "U", "NORAD_CAT_ID": 66997, "ELEMENT_SET_NO": 999, "REV_AT_EPOCH": 136, "BSTAR": 0.00020328778, "MEAN_MOTION_DOT": 2.806e-05, "MEAN_MOTION_DDOT": 0}, "tle": {"line1": "1 66997U 25292E   25353.25710550  .00002806  00000+0  20329-3 0  9994", "line2": "2 66997  97.6543  65.7496 0013487 252.5124 107.4629 15.04723396  1363"}}, "geometry": {"type": "Point", "coordinates": [-109.2497773803262, 31.049149510368753]}}]}